{"type": "FeatureCollection", "features": [ {"type": "Feature", "properties": {"norad_id": 37550, "name": "IRIDIUM 33 DEB", "group": "iridium-33-debris", "lat": -68.95183945218572, "lon": -148.03711324205426, "alt_km": 680.4394234979954, "timestamp": "2025-12-15T20:48:54.270336+00:00", "meta": {"OBJECT_NAME": "IRIDIUM 33 DEB", "OBJECT_ID": "1997-051XK", "EPOCH": "2025-12-13T08:45:33.524640", "MEAN_MOTION": 14.67228096, "ECCENTRICITY": 0.00055701, "INCLINATION": 86.378, "RA_OF_ASC_NODE": 23.5976, "ARG_OF_PERICENTER": 109.645, "MEAN_ANOMALY": 250.5366, "EPHEMERIS_TYPE": 0, "CLASSIFICATION_TYPE": "U", "NORAD_CAT_ID": 37550, "ELEMENT_SET_NO": 999, "REV_AT_EPOCH": 86342, "BSTAR": 0.0021536322, "MEAN_MOTION_DOT": 0.00012161, "MEAN_MOTION_DDOT": 0}, "tle": {"line1": "1 37550U 97051XK  25347.36497135  .00012161  00000+0  21536-2 0  9990", "line2": "2 37550  86.3780  23.5976 0005570 109.6450 250.5366 14.67228096863423"}}, "geometry": {"type": "Point", "coordinates": [-148.03711324205426, -68.95183945218572]}}, {"type": "Feature", "properties": {"norad_id": 37562, "name": "IRIDIUM 33 DEB", "group": "iridium-33-debris", "lat": -23.38822377571454, "lon": 40.665293985874776, "alt_km": 719.6030918255192, "timestamp": "2025-12-15T20:48:54.270346+00:00", "meta": {"OBJECT_NAME": "IRIDIUM 33 DEB", "OBJECT_ID": "1997-051XX", "EPOCH": "2025-12-12T22:34:29.180064", "MEAN_MOTION": 14.56479735, "ECCENTRICITY": 0.00267072, "INCLINATION": 86.3742, "RA_OF_ASC_NODE": 43.5127, "ARG_OF_PERICENTER": 107.2211, "MEAN_ANOMALY": 13.868, "EPHEMERIS_TYPE": 0, "CLASSIFICATION_TYPE": "U", "NORAD_CAT_ID": 37562, "ELEMENT_SET_NO": 999, "REV_AT_EPOCH": 86331, "BSTAR": 0.0015437368, "MEAN_MOTION_DOT": 6.916e-05, "MEAN_MOTION_DDOT": 0}, "tle": {"line1": "1 37562U 97051XX  25346.94061551  .00006916  00000+0  15437-2 0  9999", "line2": "2 37562  86.3742  43.5127 0026707 107.2211  13.8680 14.56479735863311"}}, "geometry": {"type": "Point", "coordinates": [40.665293985874776, -23.38822377571454]}}, {"type": "Feature", "properties": {"norad_id": 37565, "name": "IRIDIUM 33 DEB", "group": "iridium-33-debris", "lat": 61.45058119254976, "lon": 14.95396631664357, "alt_km": 704.2420655848382, "timestamp": "2025-12-15T20:48:54.270356+00:00", "meta": {"OBJECT_NAME": "IRIDIUM 33 DEB", "OBJECT_ID": "1997-051YA", "EPOCH": "2025-12-14T08:08:01.766976", "MEAN_MOTION": 14.51526199, "ECCENTRICITY": 0.0015168, "INCLINATION": 86.3501, "RA_OF_ASC_NODE": 8.8819, "ARG_OF_PERICENTER": 79.3399, "MEAN_ANOMALY": 280.9514, "EPHEMERIS_TYPE": 0, "CLASSIFICATION_TYPE": "U", "NORAD_CAT_ID": 37565, "ELEMENT_SET_NO": 999, "REV_AT_EPOCH": 65860, "BSTAR": 0.00061477591, "MEAN_MOTION_DOT": 2.481e-05, "MEAN_MOTION_DDOT": 0}, "tle": {"line1": "1 37565U 97051YA  25348.33890934  .00002481  00000+0  61478-3 0  9992", "line2": "2 37565  86.3501   8.8819 0015168  79.3399 280.9514 14.51526199658603"}}, "geometry": {"type": "Point", "coordinates": [14.95396631664357, 61.45058119254976]}}, {"type": "Feature", "properties": {"norad_id": 38017, "name": "IRIDIUM 33 DEB", "group": "iridium-33-debris", "lat": 56.72637379123773, "lon": -20.725325142726035, "alt_km": 666.8673898765583, "timestamp": "2025-12-15T20:48:54.270366+00:00", "meta": {"OBJECT_NAME": "IRIDIUM 33 DEB", "OBJECT_ID": "1997-051YD", "EPOCH": "2025-12-14T17:44:25.791360", "MEAN_MOTION": 14.49092663, "ECCENTRICITY": 0.00918116, "INCLINATION": 86.3427, "RA_OF_ASC_NODE": 165.3584, "ARG_OF_PERICENTER": 96.1692, "MEAN_ANOMALY": 264.9981, "EPHEMERIS_TYPE": 0, "CLASSIFICATION_TYPE": "U", "NORAD_CAT_ID": 38017, "ELEMENT_SET_NO": 999, "REV_AT_EPOCH": 61431, "BSTAR": 0.003705751, "MEAN_MOTION_DOT": 0.00014893, "MEAN_MOTION_DDOT": 0}, "tle": {"line1": "1 38017U 97051YD  25348.73918740  .00014893  00000+0  37058-2 0  9991", "line2": "2 38017  86.3427 165.3584 0091811  96.1692 264.9981 14.49092663614314"}}, "geometry": {"type": "Point", "coordinates": [-20.725325142726035, 56.72637379123773]}}, {"type": "Feature", "properties": {"norad_id": 38022, "name": "IRIDIUM 33 DEB", "group": "iridium-33-debris", "lat": 2.9622329648590395, "lon": -165.11957660458074, "alt_km": 781.0777036305099, "timestamp": "2025-12-15T20:48:54.270376+00:00", "meta": {"OBJECT_NAME": "IRIDIUM 33 DEB", "OBJECT_ID": "1997-051YJ", "EPOCH": "2025-12-12T08:41:14.041248", "MEAN_MOTION": 14.41246239, "ECCENTRICITY": 0.00465932, "INCLINATION": 86.2691, "RA_OF_ASC_NODE": 16.6083, "ARG_OF_PERICENTER": 51.6762, "MEAN_ANOMALY": 308.8611, "EPHEMERIS_TYPE": 0, "CLASSIFICATION_TYPE": "U", "NORAD_CAT_ID": 38022, "ELEMENT_SET_NO": 999, "REV_AT_EPOCH": 69188, "BSTAR": 0.001535131, "MEAN_MOTION_DOT": 5.042e-05, "MEAN_MOTION_DDOT": 0}, "tle": {"line1": "1 38022U 97051YJ  25346.36196807  .00005042  00000+0  15351-2 0  9994", "line2": "2 38022  86.2691  16.6083 0046593  51.6762 308.8611 14.41246239691882"}}, "geometry": {"type": "Point", "coordinates": [-165.11957660458074, 2.9622329648590395]}}, {"type": "Feature", "properties": {"norad_id": 38028, "name": "IRIDIUM 33 DEB", "group": "iridium-33-debris", "lat": 14.926507673709423, "lon": -0.108744774299738, "alt_km": 741.250594205223, "timestamp": "2025-12-15T20:48:54.270386+00:00", "meta": {"OBJECT_NAME": "IRIDIUM 33 DEB", "OBJECT_ID": "1997-051YQ", "EPOCH": "2025-12-14T18:10:34.836096", "MEAN_MOTION": 14.46181503, "ECCENTRICITY": 0.00303806, "INCLINATION": 86.3253, "RA_OF_ASC_NODE": 359.392, "ARG_OF_PERICENTER": 114.704, "MEAN_ANOMALY": 245.733, "EPHEMERIS_TYPE": 0, "CLASSIFICATION_TYPE": "U", "NORAD_CAT_ID": 38028, "ELEMENT_SET_NO": 999, "REV_AT_EPOCH": 65524, "BSTAR": 0.00026010373, "MEAN_MOTION_DOT": 9.55e-06, "MEAN_MOTION_DDOT": 0}, "tle": {"line1": "1 38028U 97051YQ  25348.75734764  .00000955  00000+0  26010-3 0  9998", "line2": "2 38028  86.3253 359.3920 0030380 114.7040 245.7330 14.46181503655241"}}, "geometry": {"type": "Point", "coordinates": [-0.108744774299738, 14.926507673709423]}}, {"type": "Feature", "properties": {"norad_id": 38228, "name": "IRIDIUM 33 DEB", "group": "iridium-33-debris", "lat": 82.84083997818479, "lon": -163.91909228402233, "alt_km": 787.6808744159716, "timestamp": "2025-12-15T20:48:54.270396+00:00", "meta": {"OBJECT_NAME": "IRIDIUM 33 DEB", "OBJECT_ID": "1997-051ZC", "EPOCH": "2025-12-14T10:59:42.153792", "MEAN_MOTION": 14.27270051, "ECCENTRICITY": 0.00644722, "INCLINATION": 86.2946, "RA_OF_ASC_NODE": 47.7393, "ARG_OF_PERICENTER": 183.8475, "MEAN_ANOMALY": 236.9898, "EPHEMERIS_TYPE": 0, "CLASSIFICATION_TYPE": "U", "NORAD_CAT_ID": 38228, "ELEMENT_SET_NO": 999, "REV_AT_EPOCH": 84806, "BSTAR": 0.00037823532, "MEAN_MOTION_DOT": 9.64e-06, "MEAN_MOTION_DDOT": 0}, "tle": {"line1": "1 38228U 97051ZC  25348.45812678  .00000964  00000+0  37824-3 0  9993", "line2": "2 38228  86.2946  47.7393 0064472 183.8475 236.9898 14.27270051848062"}}, "geometry": {"type": "Point", "coordinates": [-163.91909228402233, 82.84083997818479]}}, {"type": "Feature", "properties": {"norad_id": 38241, "name": "IRIDIUM 33 DEB", "group": "iridium-33-debris", "lat": -31.19102690499963, "lon": -13.010961748004288, "alt_km": 716.1232592784281, "timestamp": "2025-12-15T20:48:54.270406+00:00", "meta": {"OBJECT_NAME": "IRIDIUM 33 DEB", "OBJECT_ID": "1997-051ZR", "EPOCH": "2025-12-13T06:13:58.226016", "MEAN_MOTION": 14.54873749, "ECCENTRICITY": 0.00056326, "INCLINATION": 86.3232, "RA_OF_ASC_NODE": 350.3699, "ARG_OF_PERICENTER": 72.2147, "MEAN_ANOMALY": 287.9674, "EPHEMERIS_TYPE": 0, "CLASSIFICATION_TYPE": "U", "NORAD_CAT_ID": 38241, "ELEMENT_SET_NO": 999, "REV_AT_EPOCH": 60208, "BSTAR": 0.0012492013, "MEAN_MOTION_DOT": 5.385e-05, "MEAN_MOTION_DDOT": 0}, "tle": {"line1": "1 38241U 97051ZR  25347.25970169  .00005385  00000+0  12492-2 0  9990", "line2": "2 38241  86.3232 350.3699 0005632  72.2147 287.9674 14.54873749602089"}}, "geometry": {"type": "Point", "coordinates": [-13.010961748004288, -31.19102690499963]}}, {"type": "Feature", "properties": {"norad_id": 38474, "name": "IRIDIUM 33 DEB", "group": "iridium-33-debris", "lat": 54.79927087473569, "lon": 13.90152145058912, "alt_km": 699.6972725664291, "timestamp": "2025-12-15T20:48:54.270416+00:00", "meta": {"OBJECT_NAME": "IRIDIUM 33 DEB", "OBJECT_ID": "1997-051AAB", "EPOCH": "2025-12-13T08:58:04.646496", "MEAN_MOTION": 14.5069505, "ECCENTRICITY": 0.00282612, "INCLINATION": 86.3454, "RA_OF_ASC_NODE": 9.789, "ARG_OF_PERICENTER": 86.1077, "MEAN_ANOMALY": 274.3358, "EPHEMERIS_TYPE": 0, "CLASSIFICATION_TYPE": "U", "NORAD_CAT_ID": 38474, "ELEMENT_SET_NO": 999, "REV_AT_EPOCH": 65327, "BSTAR": 0.00084561127, "MEAN_MOTION_DOT": 3.359e-05, "MEAN_MOTION_DDOT": 0}, "tle": {"line1": "1 38474U 97051AAB 25347.37366489  .00003359  00000+0  84561-3 0  9991", "line2": "2 38474  86.3454   9.7890 0028261  86.1077 274.3358 14.50695050653279"}}, "geometry": {"type": "Point", "coordinates": [13.90152145058912, 54.79927087473569]}}, {"type": "Feature", "properties": {"norad_id": 39777, "name": "IRIDIUM 33 DEB", "group": "iridium-33-debris", "lat": 13.187102533277775, "lon": -7.423154777479836, "alt_km": 663.7668601206506, "timestamp": "2025-12-15T20:48:54.270426+00:00", "meta": {"OBJECT_NAME": "IRIDIUM 33 DEB", "OBJECT_ID": "1997-051AAJ", "EPOCH": "2025-12-12T06:18:37.183104", "MEAN_MOTION": 14.5641282, "ECCENTRICITY": 0.00598335, "INCLINATION": 85.9631, "RA_OF_ASC_NODE": 175.2743, "ARG_OF_PERICENTER": 188.1374, "MEAN_ANOMALY": 171.887, "EPHEMERIS_TYPE": 0, "CLASSIFICATION_TYPE": "U", "NORAD_CAT_ID": 39777, "ELEMENT_SET_NO": 999, "REV_AT_EPOCH": 60178, "BSTAR": 0.0041697031, "MEAN_MOTION_DOT": 0.00019016, "MEAN_MOTION_DDOT": 0}, "tle": {"line1": "1 39777U 97051AAJ 25346.26293036  .00019016  00000+0  41697-2 0  9991", "line2": "2 39777  85.9631 175.2743 0059833 188.1374 171.8870 14.56412820601783"}}, "geometry": {"type": "Point", "coordinates": [-7.423154777479836, 13.187102533277775]}}]}